{
  "type": "FeatureCollection",
  "features": [
    {
      "type": "Feature",
      "properties": {
        "norad_id": 33866,
        "name": "IRIDIUM 33 DEB",
        "group": "iridium-33-debris",
        "lat": NaN,
        "lon": NaN,
        "alt_km": NaN,
        "timestamp": "2025-12-01T03:12:44.648000+00:00",
        "meta": {
          "OBJECT_NAME": "IRIDIUM 33 DEB",
          "OBJECT_ID": "1997-051AK",
          "EPOCH": "2025-11-30T18:58:32.444256",
          "MEAN_MOTION": 14.25205128,
          "ECCENTRICITY": 0.0113431,
          "INCLINATION": 86.2996,
          "RA_OF_ASC_NODE": 98.0905,
          "ARG_OF_PERICENTER": 199.5552,
          "MEAN_ANOMALY": 317.1464,
          "EPHEMERIS_TYPE": 0,
          "CLASSIFICATION_TYPE": "U",
          "NORAD_CAT_ID": 33866,
          "ELEMENT_SET_NO": 999,
          "REV_AT_EPOCH": 86640,
          "BSTAR": 0.00063277,
          "MEAN_MOTION_DOT": 1.608e-05,
          "MEAN_MOTION_DDOT": 0
        }
      },
      "geometry": {
        "type": "Point",
        "coordinates": [
          NaN,
          NaN
        ]
      }
    },
    {
      "type": "Feature",
      "properties": {
        "norad_id": 33867,
        "name": "IRIDIUM 33 DEB",
        "group": "iridium-33-debris",
        "lat": NaN,
        "lon": NaN,
        "alt_km": NaN,
        "timestamp": "2025-12-01T03:12:44.648006+00:00",
        "meta": {
          "OBJECT_NAME": "IRIDIUM 33 DEB",
          "OBJECT_ID": "1997-051AL",
          "EPOCH": "2025-11-30T19:33:34.621056",
          "MEAN_MOTION": 15.51563057,
          "ECCENTRICITY": 0.0011643,
          "INCLINATION": 86.3635,
          "RA_OF_ASC_NODE": 356.2181,
          "ARG_OF_PERICENTER": 104.9497,
          "MEAN_ANOMALY": 255.3053,
          "EPHEMERIS_TYPE": 0,
          "CLASSIFICATION_TYPE": "U",
          "NORAD_CAT_ID": 33867,
          "ELEMENT_SET_NO": 999,
          "REV_AT_EPOCH": 89325,
          "BSTAR": 0.0065405,
          "MEAN_MOTION_DOT": 0.00407496,
          "MEAN_MOTION_DDOT": 0
        }
      },
      "geometry": {
        "type": "Point",
        "coordinates": [
          NaN,
          NaN
        ]
      }
    },
    {
      "type": "Feature",
      "properties": {
        "norad_id": 33870,
        "name": "IRIDIUM 33 DEB",
        "group": "iridium-33-debris",
        "lat": NaN,
        "lon": NaN,
        "alt_km": NaN,
        "timestamp": "2025-12-01T03:12:44.648012+00:00",
        "meta": {
          "OBJECT_NAME": "IRIDIUM 33 DEB",
          "OBJECT_ID": "1997-051AP",
          "EPOCH": "2025-11-30T07:11:54.566304",
          "MEAN_MOTION": 14.45737102,
          "ECCENTRICITY": 0.00201779,
          "INCLINATION": 86.3751,
          "RA_OF_ASC_NODE": 63.5913,
          "ARG_OF_PERICENTER": 219.9523,
          "MEAN_ANOMALY": 200.1752,
          "EPHEMERIS_TYPE": 0,
          "CLASSIFICATION_TYPE": "U",
          "NORAD_CAT_ID": 33870,
          "ELEMENT_SET_NO": 999,
          "REV_AT_EPOCH": 87957,
          "BSTAR": 0.00092179021,
          "MEAN_MOTION_DOT": 3.291e-05,
          "MEAN_MOTION_DDOT": 0
        }
      },
      "geometry": {
        "type": "Point",
        "coordinates": [
          NaN,
          NaN
        ]
      }
    },
    {
      "type": "Feature",
      "properties": {
        "norad_id": 33881,
        "name": "IRIDIUM 33 DEB",
        "group": "iridium-33-debris",
        "lat": NaN,
        "lon": NaN,
        "alt_km": NaN,
        "timestamp": "2025-12-01T03:12:44.648018+00:00",
        "meta": {
          "OBJECT_NAME": "IRIDIUM 33 DEB",
          "OBJECT_ID": "1997-051BA",
          "EPOCH": "2025-11-30T20:17:53.701152",
          "MEAN_MOTION": 14.56233638,
          "ECCENTRICITY": 0.006095,
          "INCLINATION": 86.3869,
          "RA_OF_ASC_NODE": 111.908,
          "ARG_OF_PERICENTER": 213.3225,
          "MEAN_ANOMALY": 300.7584,
          "EPHEMERIS_TYPE": 0,
          "CLASSIFICATION_TYPE": "U",
          "NORAD_CAT_ID": 33881,
          "ELEMENT_SET_NO": 999,
          "REV_AT_EPOCH": 87327,
          "BSTAR": 0.0018142,
          "MEAN_MOTION_DOT": 8.249e-05,
          "MEAN_MOTION_DDOT": 0
        }
      },
      "geometry": {
        "type": "Point",
        "coordinates": [
          NaN,
          NaN
        ]
      }
    },
    {
      "type": "Feature",
      "properties": {
        "norad_id": 33884,
        "name": "IRIDIUM 33 DEB",
        "group": "iridium-33-debris",
        "lat": NaN,
        "lon": NaN,
        "alt_km": NaN,
        "timestamp": "2025-12-01T03:12:44.648023+00:00",
        "meta": {
          "OBJECT_NAME": "IRIDIUM 33 DEB",
          "OBJECT_ID": "1997-051BD",
          "EPOCH": "2025-11-30T14:40:42.860352",
          "MEAN_MOTION": 14.77072324,
          "ECCENTRICITY": 0.0011027,
          "INCLINATION": 86.3702,
          "RA_OF_ASC_NODE": 15.2916,
          "ARG_OF_PERICENTER": 7.7393,
          "MEAN_ANOMALY": 117.3051,
          "EPHEMERIS_TYPE": 0,
          "CLASSIFICATION_TYPE": "U",
          "NORAD_CAT_ID": 33884,
          "ELEMENT_SET_NO": 999,
          "REV_AT_EPOCH": 88668,
          "BSTAR": 0.0013709,
          "MEAN_MOTION_DOT": 9.713e-05,
          "MEAN_MOTION_DDOT": 0
        }
      },
      "geometry": {
        "type": "Point",
        "coordinates": [
          NaN,
          NaN
        ]
      }
    },
    {
      "type": "Feature",
      "properties": {
        "norad_id": 33886,
        "name": "IRIDIUM 33 DEB",
        "group": "iridium-33-debris",
        "lat": NaN,
        "lon": NaN,
        "alt_km": NaN,
        "timestamp": "2025-12-01T03:12:44.648030+00:00",
        "meta": {
          "OBJECT_NAME": "IRIDIUM 33 DEB",
          "OBJECT_ID": "1997-051BF",
          "EPOCH": "2025-11-30T18:34:48.516960",
          "MEAN_MOTION": 14.36027403,
          "ECCENTRICITY": 0.0012047,
          "INCLINATION": 86.3832,
          "RA_OF_ASC_NODE": 72.2644,
          "ARG_OF_PERICENTER": 287.5048,
          "MEAN_ANOMALY": 239.6175,
          "EPHEMERIS_TYPE": 0,
          "CLASSIFICATION_TYPE": "U",
          "NORAD_CAT_ID": 33886,
          "ELEMENT_SET_NO": 999,
          "REV_AT_EPOCH": 87880,
          "BSTAR": 0.00021687,
          "MEAN_MOTION_DOT": 6.5e-06,
          "MEAN_MOTION_DDOT": 0
        }
      },
      "geometry": {
        "type": "Point",
        "coordinates": [
          NaN,
          NaN
        ]
      }
    },
    {
      "type": "Feature",
      "properties": {
        "norad_id": 33887,
        "name": "IRIDIUM 33 DEB",
        "group": "iridium-33-debris",
        "lat": NaN,
        "lon": NaN,
        "alt_km": NaN,
        "timestamp": "2025-12-01T03:12:44.648035+00:00",
        "meta": {
          "OBJECT_NAME": "IRIDIUM 33 DEB",
          "OBJECT_ID": "1997-051BG",
          "EPOCH": "2025-11-30T20:51:26.987040",
          "MEAN_MOTION": 14.37203854,
          "ECCENTRICITY": 0.0004054,
          "INCLINATION": 86.3054,
          "RA_OF_ASC_NODE": 8.5074,
          "ARG_OF_PERICENTER": 283.9291,
          "MEAN_ANOMALY": 259.6304,
          "EPHEMERIS_TYPE": 0,
          "CLASSIFICATION_TYPE": "U",
          "NORAD_CAT_ID": 33887,
          "ELEMENT_SET_NO": 999,
          "REV_AT_EPOCH": 87994,
          "BSTAR": 0.00014954,
          "MEAN_MOTION_DOT": 4.65e-06,
          "MEAN_MOTION_DDOT": 0
        }
      },
      "geometry": {
        "type": "Point",
        "coordinates": [
          NaN,
          NaN
        ]
      }
    },
    {
      "type": "Feature",
      "properties": {
        "norad_id": 33953,
        "name": "IRIDIUM 33 DEB",
        "group": "iridium-33-debris",
        "lat": NaN,
        "lon": NaN,
        "alt_km": NaN,
        "timestamp": "2025-12-01T03:12:44.648041+00:00",
        "meta": {
          "OBJECT_NAME": "IRIDIUM 33 DEB",
          "OBJECT_ID": "1997-051BN",
          "EPOCH": "2025-11-30T18:11:46.782240",
          "MEAN_MOTION": 14.55120869,
          "ECCENTRICITY": 0.0018407,
          "INCLINATION": 86.385,
          "RA_OF_ASC_NODE": 58.9778,
          "ARG_OF_PERICENTER": 139.4821,
          "MEAN_ANOMALY": 350.458,
          "EPHEMERIS_TYPE": 0,
          "CLASSIFICATION_TYPE": "U",
          "NORAD_CAT_ID": 33953,
          "ELEMENT_SET_NO": 999,
          "REV_AT_EPOCH": 88129,
          "BSTAR": 0.001295,
          "MEAN_MOTION_DOT": 5.623e-05,
          "MEAN_MOTION_DDOT": 0
        }
      },
      "geometry": {
        "type": "Point",
        "coordinates": [
          NaN,
          NaN
        ]
      }
    },
    {
      "type": "Feature",
      "properties": {
        "norad_id": 33960,
        "name": "IRIDIUM 33 DEB",
        "group": "iridium-33-debris",
        "lat": NaN,
        "lon": NaN,
        "alt_km": NaN,
        "timestamp": "2025-12-01T03:12:44.648046+00:00",
        "meta": {
          "OBJECT_NAME": "IRIDIUM 33 DEB",
          "OBJECT_ID": "1997-051BV",
          "EPOCH": "2025-11-30T15:17:05.433216",
          "MEAN_MOTION": 14.84193351,
          "ECCENTRICITY": 0.0006931,
          "INCLINATION": 86.2524,
          "RA_OF_ASC_NODE": 295.2162,
          "ARG_OF_PERICENTER": 78.9046,
          "MEAN_ANOMALY": 98.4879,
          "EPHEMERIS_TYPE": 0,
          "CLASSIFICATION_TYPE": "U",
          "NORAD_CAT_ID": 33960,
          "ELEMENT_SET_NO": 999,
          "REV_AT_EPOCH": 88687,
          "BSTAR": 0.003191,
          "MEAN_MOTION_DOT": 0.0002679,
          "MEAN_MOTION_DDOT": 0
        }
      },
      "geometry": {
        "type": "Point",
        "coordinates": [
          NaN,
          NaN
        ]
      }
    }
  ]
}